EVENT_NAME: None
EVENT_ID: INT-20230206_0000008
EVENT_DATE_YYYYMMDD: 20230206
EVENT_TIME_HHMMSS: 011736
EVENT_LATITUDE_DEGREE: 37.1700
EVENT_LONGITUDE_DEGREE: 37.0800
EVENT_DEPTH_KM: 20.0
HYPOCENTER_REFERENCE: EMSC-CSEM
MAGNITUDE_W: 7.8
MAGNITUDE_W_REFERENCE: EMSC-CSEM
MAGNITUDE_L: 
MAGNITUDE_L_REFERENCE: 
FOCAL_MECHANISM: Strike-slip faulting
NETWORK: TK
STATION_CODE: 4615
STATION_NAME: None
STATION_LATITUDE_DEGREE: 37.386760
STATION_LONGITUDE_DEGREE: 37.138030
STATION_ELEVATION_M: 581
LOCATION: 
SENSOR_DEPTH_M: 0.0
VS30_M/S: 
SITE_CLASSIFICATION_EC8: C (inferred from topography)
MORPHOLOGIC_CLASSIFICATION: 
EPICENTRAL_DISTANCE_KM: 24.6
EARTHQUAKE_BACKAZIMUTH_DEGREE: 12.1
DATE_TIME_FIRST_SAMPLE_YYYYMMDD_HHMMSS: 20230206_011707.365
DATE_TIME_FIRST_SAMPLE_PRECISION: milliseconds
SAMPLING_INTERVAL_S: 0.005000
NDATA: 16000
DURATION_S: 80.000
STREAM: HNE
UNITS: cm/s^2
INSTRUMENT: HN
INSTRUMENT_ANALOG/DIGITAL: D
INSTRUMENTAL_FREQUENCY_HZ: 
INSTRUMENTAL_DAMPING: 
FULL_SCALE_G: 
N_BIT_DIGITAL_CONVERTER: 
PGA_CM/S^2: 565.370291
TIME_PGA_S: 35.050000
BASELINE_CORRECTION: BASELINE REMOVED
FILTER_TYPE: BUTTERWORTH
FILTER_ORDER: 2
LOW_CUT_FREQUENCY_HZ: 0.030
HIGH_CUT_FREQUENCY_HZ: 40.000
LATE/NORMAL_TRIGGERED: NT
DATABASE_VERSION: 0.5
HEADER_FORMAT: DYNA 1.2
DATA_TYPE: ACCELERATION
PROCESSING: manual (Paolucci et al., 2011)
DATA_TIMESTAMP_YYYYMMDD_HHMMSS: 20240108_114048.982
DATA_LICENSE: D (network default license)
DATA_CITATION: Luzi L., Lanzano G., Felicetta C., D Amico M. C., Russo E., Sgobba S., Pacor, F., & ORFEUS Working Group 5 (2020). Engineering Strong Motion Database (ESM) (Version 2.0). Istituto Nazionale di Geofisica e Vulcanologia (INGV). https://doi.org/10.13127/ESM.2
DATA_CREATOR: ESM working group
ORIGINAL_DATA_MEDIATOR_CITATION: afad
ORIGINAL_DATA_MEDIATOR: afad
ORIGINAL_DATA_CREATOR_CITATION: Disaster And Emergency Management Authority. (1973). Turkish National Strong Motion Network. Department of Earthquake, Disaster and Emergency Management Authority. https://doi.org/10.7914/SN/TK http://www.fdsn.org/networks/detail/TK/
ORIGINAL_DATA_CREATOR: network: TK (Turkish National Strong Motion Network (TNSMN)); owner: Disaster and Emergency Management Authority (AFAD)
USER1: 
USER2: 
USER3: 
USER4: 
USER5: 
[...]
-0.007456
-0.007236
-0.007261
-0.007798
-0.008741
-0.009576
-0.009798
-0.009345
-0.008623
-0.008250
-0.008574
-0.009359
-0.010065
-0.010291
-0.010040
-0.009690
-0.009571
-0.009628
-0.009657
-0.009639
-0.009739
-0.010146
-0.010913
-0.011871
-0.012693
-0.013021
-0.012641
-0.011657
-0.010539
-0.009940
-0.010132
-0.010643
-0.010821
-0.010506
-0.010007
-0.009744
-0.009821
-0.009897
-0.009694
-0.009398
-0.009264
-0.009195
-0.009054
-0.009040
-0.009452
-0.010284
-0.011176
-0.011645
-0.011548
-0.011296
-0.011317
-0.011585
-0.011943
-0.012478
-0.013209
-0.013738
-0.013560
-0.012588
-0.011348
-0.010717
-0.011055
-0.011698
-0.011864
-0.011599
-0.011452
-0.011746
-0.012323
-0.012712
-0.012716
-0.012717
-0.013071
-0.013559
-0.013828
-0.013936
-0.014128
-0.014387
-0.014383
-0.013732
-0.012472
-0.011247
-0.010665
-0.010706
-0.011051
-0.011577
-0.012288
-0.013088
-0.013751
-0.014041
-0.013870
-0.013370
-0.012744
-0.012121
-0.011611
-0.011380
-0.011580
-0.012233
-0.013194
-0.014193
-0.014949
-0.015286
-0.015176
-0.014747
-0.014206
-0.013732
-0.013342
-0.012930
-0.012616
-0.012895
-0.014017
-0.015428
-0.016186
-0.015736
-0.014379
-0.013185
-0.012951
-0.013404
-0.013867
-0.014165
-0.014584
-0.015387
-0.016333
-0.016652
-0.015889
-0.014576
-0.013645
-0.013585
-0.014293
-0.015288
-0.016096
-0.016522
-0.016615
-0.016511
-0.016301
-0.015979
-0.015567
-0.015236
-0.015261
-0.015848
-0.016888
-0.017889
-0.018379
-0.018305
-0.017917
-0.017514
-0.017313
-0.017404
-0.017733
-0.018110
-0.018306
-0.018165
-0.017646
-0.016831
-0.015868
-0.014932
-0.014221
-0.013940
-0.014191
-0.014905
-0.015945
-0.017182
-0.018390
-0.019177
-0.019268
-0.018787
-0.018220
-0.018146
-0.018823
-0.019979
-0.021199
-0.022362
-0.023599
-0.025012
-0.026381
-0.027163
-0.027089
-0.026638
-0.026578
-0.027310
-0.028667
-0.030098
-0.031216
-0.032131
-0.033061
-0.033879
-0.034309
-0.034309
-0.034215
-0.034594
-0.035736
-0.037340
-0.038950
-0.040406
-0.041650
-0.042431
-0.042502
-0.041940
-0.041209
-0.040932
-0.041362
-0.042043
-0.042255
-0.041612
-0.040237
-0.038654
-0.037443
-0.036946
-0.037291
-0.038441
-0.040096
-0.041619
-0.042294
-0.041729
-0.040183
-0.038575
-0.037786
-0.038024
-0.038990
-0.040299
-0.041661
-0.042835
-0.043455
-0.043158
-0.042370
-0.042643
-0.045303
-0.050072
-0.055468
-0.059959
-0.062996
-0.065334
-0.067990
-0.071367
-0.075837
-0.082248
-0.090867
-0.100472
-0.109518
-0.117834
-0.127100
-0.140079
-0.158267
-0.180250
-0.203128
-0.224404
-0.242203
-0.255238
-0.263876
-0.270993
-0.280574
-0.295149
-0.313346
-0.329761
-0.340144
-0.346261
-0.354195
-0.369574
-0.392240
-0.413632
-0.421564
-0.407290
-0.370856
-0.322983
-0.279284
-0.251979
-0.243197
-0.243120
-0.238393
-0.220819
-0.187570
-0.138889
-0.078541
-0.016056
0.032634
0.050192
0.033269
0.002908
-0.009048
0.019920
0.091363
0.183283
0.262218
0.299765
0.287450
0.245264
0.212007
0.224172
0.287180
0.363062
0.406474
0.405386
0.382906
0.376094
0.402344
0.443273
0.476782
0.508013
0.551758
0.603030
0.634097
0.613556
0.543147
0.474107
0.458822
0.496960
0.536916
0.509551
0.381938
0.193075
0.025332
-0.048394
-0.013483
0.065161
0.089036
-0.008083
-0.215629
-0.445424
-0.613141
-0.711902
-0.787748
-0.882681
-1.001620
-1.113840
-1.199920
-1.281135
-1.372467
-1.436639
-1.419162
-1.305411
-1.140277
-1.013310
-1.000916
-1.111889
-1.284397
-1.416824
-1.434331
-1.346169
-1.237830
-1.218314
-1.326176
-1.473496
-1.523751
-1.396679
-1.106473
-0.752244
-0.460189
-0.325272
-0.384259
-0.601287
-0.869010
-1.041151
-1.031642
-0.898550
-0.805385
-0.915625
-1.254550
-1.635753
-1.786969
-1.531350
-0.900282
-0.144726
0.435056
0.671758
0.572110
0.275937
-0.051030
-0.313240
-0.502317
-0.669666
-0.859341
-1.049792
-1.159306
-1.096800
-0.854683
-0.559939
-0.380669
-0.406232
-0.612453
-0.892566
-1.156688
-1.410721
-1.724382
-2.161163
-2.721002
-3.310095
-3.767185
-3.921724
-3.680656
-3.089411
-2.295371
-1.478560
-0.795771
-0.357070
-0.249068
-0.532904
-1.153057
-1.869579
-2.359916
-2.387360
-1.938928
-1.254559
-0.629374
-0.219016
-0.063390
-0.181362
-0.608686
-1.372773
-2.408060
-3.516639
-4.482608
-5.191470
-5.613725
-5.753600
-5.641283
-5.320709
-4.779002
-3.903862
-2.592010
-0.903967
0.864435
2.262886
3.030529
3.355332
3.653857
4.216425
5.022870
5.751649
6.066857
5.894022
5.418282
4.957142
4.786983
5.001075
5.482977
5.972649
6.264869
6.379824
6.516035
6.884468
7.488139
8.026804
8.155845
7.791083
7.149665
6.594477
6.302783
6.073433
5.603663
4.795517
3.663432
2.085375
-0.342244
-4.208277
-9.763788
-16.491059
-23.333056
-29.140349
-33.011987
-34.493271
-33.567018
-30.579336
-26.119403
-20.864857
-15.384000
-10.008235
-4.929844
-0.324595
3.666643
6.984910
9.612229
11.503901
12.579801
12.782192
12.219140
11.262530
10.427165
10.154173
10.595493
11.525190
12.568264
13.484481
14.257978
15.008566
15.702927
15.988640
15.492864
14.160667
12.213046
9.935068
7.488418
4.898724
2.357077
0.408808
-0.440833
-0.227489
0.371686
0.275106
-1.363989
-4.623550
-8.929237
-13.438393
-17.451964
-20.650242
-22.915038
-24.069196
-23.807761
-21.799437
-17.994581
-12.894459
-7.478889
-2.890527
0.133298
1.673408
2.377941
2.970588
3.838947
4.904229
6.021410
7.313103
8.879411
10.412188
11.271774
10.838006
8.975628
6.254558
3.493977
1.232633
-0.349540
-1.330246
-1.957345
-2.575325
-3.482579
-4.759265
-6.168446
-7.228731
-7.617305
-7.486285
-7.216085
-6.991432
-6.571097
-5.373023
-3.087649
-0.208667
2.197627
3.070358
1.989353
-0.504953
-3.391411
-5.782278
-7.125060
-7.159618
-5.748041
-2.818566
1.391336
6.142095
10.449317
13.494960
14.925404
14.938191
13.976817
12.397486
10.415927
8.180781
5.862164
3.676371
1.781322
0.170487
-1.310862
-2.892098
-4.755234
-6.869227
-8.810788
-9.764449
-9.012715
-6.471907
-2.786350
0.921121
3.675402
5.109760
5.221835
4.037974
1.725078
-1.163237
-3.684820
-4.761495
-3.743646
-0.841405
3.091530
6.986269
9.919468
11.378192
11.361544
10.323155
8.813682
7.126644
5.278532
3.205359
1.106911
-0.421022
-0.889230
-0.463588
0.067252
-0.310637
-2.163289
-5.144120
-8.307431
-10.672780
-11.673029
-11.385095
-10.357322
-9.314495
-8.878795
-9.366545
-10.765339
-12.822812
-15.243423
-17.791827
-20.103163
-21.523662
-21.366532
-19.355505
-15.994670
-12.554819
-10.219149
-9.274638
-9.274248
-9.602992
-9.998050
-10.691642
-11.827275
-12.988129
-13.632630
-13.643108
-13.224946
-12.597728
-11.895080
-11.202333
-10.593738
-10.022062
-9.019890
-6.721356
-2.750556
2.130724
6.780863
10.531455
12.893006
13.032694
10.049636
3.730843
-4.624681
-12.079435
-15.664383
-14.046927
-7.725200
1.254328
9.639646
13.984661
13.149408
9.814969
7.770915
8.254104
8.756909
4.535338
-6.358853
-19.741926
-29.327573
-31.969120
-28.430385
-21.728924
-14.538007
-7.700122
-1.595986
2.396869
2.787219
-0.658265
-6.906888
-14.279934
-21.125860
-26.416852
-30.140546
-33.180493
-36.117967
-38.275905
-38.477197
-36.298805
-32.591164
-28.996436
-26.096873
-22.313823
-15.860992
-7.004231
2.079705
8.556688
10.354403
7.018694
-0.591600
-10.598265
-19.731026
-23.579092
-19.132539
-7.260652
7.765569
20.501065
27.643029
29.929670
29.672393
27.630195
22.665088
13.176341
-0.319749
-13.744666
-21.782875
-21.114241
-12.033234
1.631556
15.108280
25.306271
31.204140
32.955524
30.246973
21.567632
6.108485
-14.270638
-35.630322
-53.693152
-65.612570
-70.738388
-69.264030
-61.011904
-46.386216
-27.612549
-8.264180
8.042416
18.984176
24.117770
23.856337
18.549291
9.234799
-1.332461
-9.042702
-9.904562
-2.463030
10.902243
26.284393
40.969697
53.564539
62.814585
66.367646
60.976697
45.707412
24.481168
3.864482
-10.549226
-16.306365
-14.616741
-8.461402
-0.406579
8.227247
17.186707
25.954035
32.507982
33.556058
25.941642
9.290576
-12.353420
-32.725046
-46.502889
-51.130567
-47.436010
-38.584344
-28.465020
-19.948251
-13.675537
-8.594811
-3.505142
0.885270
1.386149
-4.281651
-14.185189
-23.331804
-26.853722
-23.240027
-15.461893
-7.332612
0.193744
8.345466
18.255503
29.441908
39.645002
46.696963
50.163980
50.711581
48.924148
45.043136
39.136682
31.231867
21.398100
9.915462
-2.587936
-15.253646
-27.260183
-38.126490
-47.745706
-55.804456
-61.362771
-63.417160
-61.603276
-56.205733
-47.826128
-37.008339
-24.111102
-9.705576
5.078071
18.848187
30.459931
39.327905
45.437449
48.857581
49.281595
46.177011
39.321629
29.547119
18.985844
9.912990
3.475965
-0.413859
-2.564378
-3.678652
-3.844721
-2.953734
-1.264352
0.509103
1.278104
-0.341109
-5.748874
-15.594539
-29.276754
-45.458191
-62.361562
-76.772517
-83.455710
-77.397278
-57.252337
-28.008431
-0.627315
14.912492
16.343622
8.399216
-1.439255
-8.269131
-12.866781
-18.811276
-28.342247
-40.687409
-52.283191
-59.055668
-58.852451
-52.444665
-43.154627
-34.377809
-27.205242
-20.349016
-11.285986
1.804200
18.507062
36.413226
52.351484
64.286865
72.364747
77.207316
77.631292
70.109230
50.285186
17.330138
-23.084550
-62.079033
-92.365712
-110.465436
-116.812320
-113.630604
-103.087573
-87.529390
-69.846920
-52.385703
-36.216880
-22.798254
-15.452136
-17.640287
-30.140503
-49.411479
-68.172949
-79.964408
-83.194924
-80.041332
-73.531776
-65.418266
-55.580803
-43.894452
-32.076930
-23.268921
-20.641274
-25.888502
-38.196293
-54.489932
-70.450960
-82.428404
-89.184867
-92.118988
-94.288893
-97.899309
-102.228945
-104.270927
-100.591217
-89.452780
-71.927481
-50.505719
-27.503452
-5.139110
14.042660
27.776891
35.114073
36.923900
35.293691
31.121255
22.622626
7.809274
-12.525138
-34.741696
-53.899861
-66.013048
-69.395888
-63.605724
-48.395494
-24.742425
4.027981
33.224388
58.423524
76.424609
85.617704
85.768878
77.814555
63.832036
46.622151
28.310642
9.446664
-9.719798
-27.847052
-43.068124
-54.233908
-61.520004
-66.075132
-68.400710
-67.494763
-62.882114
-56.675369
-52.618235
-53.883456
-61.166618
-72.065693
-83.095251
-91.859042
-97.228583
-98.733562
-96.074709
-88.975135
-77.418457
-61.796932
-42.653768
-20.583118
3.117471
25.866798
44.380952
55.902236
59.710217
57.936971
54.203166
51.492014
50.349029
48.159404
40.920915
25.692425
2.175978
-27.148349
-59.244306
-92.022952
-122.341914
-144.270725
-151.883885
-143.488917
-123.690369
-101.926639
-85.226894
-72.730279
-60.015875
-45.501876
-31.820132
-23.836671
-24.373622
-31.423044
-40.504119
-47.858362
-51.008745
-48.466782
-40.242305
-28.480840
-16.899901
-9.413461
-8.136557
-12.015118
-17.823201
-22.171609
-23.571447
-23.281828
-23.220305
-23.638869
-23.101381
-19.645802
-12.404442
-2.590135
7.312049
14.756265
17.775894
15.335109
7.421674
-5.409712
-23.402278
-48.016312
-79.114138
-112.010512
-138.062768
-147.702881
-135.710164
-105.038532
-64.614983
-24.803569
7.112465
29.586638
44.987003
56.443224
65.561531
71.823110
74.868010
76.497898
79.467416
85.541065
95.089806
107.595326
122.414893
138.907314
155.269762
167.972783
173.772690
171.687567
162.236355
145.937758
122.923931
93.363016
58.374267
20.466277
-17.374793
-52.484421
-82.006281
-102.660800
-112.449442
-112.188929
-104.341901
-90.851055
-71.759135
-45.639832
-13.180446
20.198824
47.268356
63.349870
68.253657
65.683511
59.300513
49.506399
34.983843
15.654167
-5.811861
-24.222105
-34.599991
-34.851790
-25.924745
-10.643033
8.241908
29.448548
52.622166
77.172976
101.527639
123.193347
140.227599
152.565369
161.561310
168.717508
174.334308
176.979720
174.930131
167.797902
156.689573
143.558925
130.119402
117.081227
104.435124
91.963820
79.428244
66.692687
54.092369
42.751598
34.398571
30.947918
33.947611
44.024114
60.446358
80.894480
101.836771
119.322910
130.246520
133.341599
129.021811
118.845155
105.058588
90.221288
76.800859
66.792313
61.471859
61.178877
65.125541
71.381721
77.491473
81.499688
83.197473
84.654730
88.648467
96.694653
108.239023
120.801760
131.380450
137.991930
140.455851
140.521076
140.902597
143.945042
150.389866
158.811059
166.712663
171.980143
173.660417
172.189412
168.883741
165.211479
162.123584
159.736809
157.836092
156.479064
156.080734
157.211448
160.272236
165.335509
172.322528
180.960455
190.062952
197.199207
200.019621
197.687867
190.820691
180.773218
168.940932
156.545178
145.255075
137.493084
135.257691
138.898466
147.320007
158.665663
170.776415
181.541186
189.438237
194.171011
197.027460
200.589215
207.148084
217.380632
230.955327
247.688315
267.980677
292.451684
320.683579
350.606769
380.147889
408.948056
437.831098
467.240007
495.779639
520.031091
537.033937
546.444399
549.462224
547.155262
540.549289
531.340401
521.867383
514.270945
508.984591
504.294936
498.880202
493.969461
491.807718
493.707620
500.454261
512.538414
527.867854
540.538918
545.324338
543.192228
541.735812
549.780289
564.666978
565.370291
527.795028
444.494315
331.112746
220.617141
141.256614
96.565145
67.053587
24.110841
-47.896042
-137.233966
-217.287953
-267.206680
-285.336379
-290.432630
-302.002158
-322.309706
-341.538556
-350.352977
-346.825990
-336.907575
-327.234759
-319.229985
-312.017983
-306.703581
-305.342879
-308.401200
-314.735127
-322.997687
-332.969475
-345.407814
-359.054680
-368.518389
-367.367706
-352.826255
-328.512238
-304.071503
-289.254946
-288.052456
-298.325870
-314.081868
-328.836518
-337.986269
-338.590557
-329.087985
-310.725158
-288.399810
-267.659279
-250.461001
-232.652420
-204.655613
-158.335199
-93.745841
-19.167520
52.536696
110.096362
148.730026
169.617981
176.837415
173.081435
156.870386
124.725444
75.396725
13.778063
-48.483751
-99.964430
-136.519069
-160.971834
-179.503448
-197.434487
-216.714768
-237.209242
-258.271622
-278.188879
-293.960263
-303.886252
-309.402584
-312.441375
-313.226102
-313.185137
-317.478358
-330.828237
-351.674844
-370.558671
-373.361025
-351.018257
-305.970044
-245.392192
-173.918670
-97.176031
-26.218496
27.990672
63.044572
87.905602
118.674817
164.371269
216.648794
258.728136
278.610199
273.503498
248.211386
209.718731
165.270161
127.987280
116.047104
131.482248
145.079192
119.729023
44.488006
-51.222660
-111.706957
-110.724511
-87.288765
-94.976782
-141.116162
-190.908446
-203.476439
-171.641069
-135.582383
-137.842975
-178.864771
-229.008886
-258.586315
-254.177692
-223.078336
-186.091031
-166.190754
-175.140110
-205.777562
-240.907824
-265.188912
-269.688666
-253.747339
-226.795563
-206.664918
-207.318568
-226.302583
-245.218072
-240.885168
-206.903242
-164.300913
-137.801833
-132.607304
-144.469445
-175.108783
-226.339088
-288.742802
-343.645023
-374.343800
-380.811618
-382.249563
-390.705139
-390.719292
-361.562005
-306.314955
-251.203676
-226.862180
-241.313561
-268.481456
-278.620537
-269.702126
-259.745201
-264.361045
-281.450351
-291.509266
-282.566989
-268.150250
-267.035623
-278.510052
-286.246646
-274.398333
-240.929614
-200.608229
-169.378892
-150.200676
-138.193874
-128.918909
-116.163813
-89.411558
-42.620568
16.353340
69.335873
98.746509
101.043992
91.948406
90.041963
99.210455
109.787887
108.282260
88.245771
55.702025
21.921039
-5.757432
-26.205081
-42.647200
-58.089220
-71.890805
-80.934437
-82.299617
-75.232853
-61.732688
-44.852326
-27.051590
-10.478256
2.458232
9.794534
11.059434
7.541186
1.955755
-2.566575
-3.540408
0.180339
7.866343
16.934988
24.153724
28.740888
33.775285
41.802354
50.573392
55.244947
52.955134
45.764850
40.118773
40.377860
43.749737
44.156464
38.000496
25.664011
10.782805
-1.499850
-6.780100
-4.484910
0.052448
-2.046517
-18.320566
-49.041462
-85.054260
-115.616445
-136.409608
-148.325464
-153.196280
-151.852917
-144.743542
-134.664466
-127.228226
-124.911092
-122.369478
-111.570879
-89.247640
-59.209985
-30.025379
-7.577063
10.106037
28.139949
48.307532
68.203303
83.636757
92.457046
96.527698
98.638747
99.023351
95.729054
86.481447
70.249259
48.291989
24.239361
2.918591
-13.103219
-26.301473
-42.492130
-66.957138
-100.142166
-135.956345
-166.713908
-188.688807
-202.768377
-212.763007
-222.845743
-235.393117
-250.118731
-264.101071
-273.318053
-274.743103
-268.207269
-256.876269
-244.552452
-233.016881
-222.424177
-212.565872
-203.102864
-193.119135
-180.611963
-162.709359
-137.479769
-105.514931
-69.291166
-31.741733
4.917748
39.854616
73.388759
106.430810
139.660325
172.589383
202.843009
226.359940
239.779892
242.857354
238.349486
230.058465
219.344817
203.516713
180.005589
150.759601
121.202006
96.801484
79.778897
67.941126
57.870241
47.897750
36.978486
23.300722
6.241938
-11.583992
-26.048556
-34.469946
-37.242787
-37.635197
-38.808755
-41.302598
-43.986295
-45.626212
-44.761747
-39.457602
-28.659577
-13.484109
3.519382
19.541782
31.832912
37.991126
37.229317
31.654203
25.921429
25.377737
32.536502
45.174901
59.786589
75.160067
91.152423
106.332063
118.141754
124.554865
125.949977
125.353423
124.995820
123.324919
116.803602
103.087726
82.549381
58.144700
33.238258
9.616964
-12.247134
-31.949934
-48.010932
-57.968568
-60.907019
-59.260712
-56.474447
-53.884003
-50.206336
-42.957351
-31.423311
-18.262419
-6.714230
2.320078
9.348415
14.441386
17.250484
17.911674
17.705671
18.991007
23.899179
33.157126
46.358673
62.676839
81.206210
100.972909
120.664826
138.445857
152.339655
161.096667
165.336934
167.621659
169.772551
170.534798
166.967504
157.048420
141.294413
122.956448
105.965381
92.903786
84.918401
82.205479
84.059482
88.858953
94.604667
99.522390
102.182949
101.455272
96.588468
87.431737
74.714172
60.092357
45.341981
31.005473
15.366016
-4.282661
-25.859858
-39.020704
-32.365918
-3.125481
39.358585
77.142393
97.019621
100.629274
97.682811
95.640388
97.101375
101.005931
104.507120
104.491014
99.107430
89.136659
78.012094
70.166963
67.144146
65.825992
63.371887
61.223932
60.774657
58.817437
50.952503
36.363454
17.235414
-3.956735
-26.107417
-49.469568
-73.617777
-96.335226
-115.883900
-132.474111
-145.138349
-149.741295
-144.002489
-131.969418
-119.950692
-111.157660
-106.081162
-104.823658
-107.554246
-113.250334
-117.726791
-114.128539
-99.186384
-77.830113
-58.002301
-43.738705
-34.066079
-24.938300
-12.369529
5.066156
25.904588
46.899370
65.675930
82.525215
98.648956
113.601186
124.667174
128.281077
123.842802
115.914791
110.352632
109.824414
